KANOPUS-V 3             
1 43180U 18014A   26068.78605696  .00000996  00000+0  45590-4 0  9999
2 43180  97.3645 336.3173 0001530  84.6861 275.4550 15.22779463449595
CONNECTA IOT-1          
1 60472U 24149E   26068.76560127  .00005875  00000+0  25345-3 0  9991
2 60472  97.3815 146.7670 0000472 228.7595 131.3601 15.22912788 86662
