[{"OBJECT_NAME":"KANOPUS-V 3","OBJECT_ID":"2018-014A","EPOCH":"2026-03-09T18:51:55.321344","MEAN_MOTION":15.22779463,"ECCENTRICITY":0.00015305,"INCLINATION":97.3645,"RA_OF_ASC_NODE":336.3173,"ARG_OF_PERICENTER":84.6861,"MEAN_ANOMALY":275.455,"EPHEMERIS_TYPE":0,"CLASSIFICATION_TYPE":"U","NORAD_CAT_ID":43180,"ELEMENT_SET_NO":999,"REV_AT_EPOCH":44959,"BSTAR":4.5590396e-5,"MEAN_MOTION_DOT":9.96e-6,"MEAN_MOTION_DDOT":0},{"OBJECT_NAME":"CONNECTA IOT-1","OBJECT_ID":"2024-149E","EPOCH":"2026-03-09T18:22:27.950592","MEAN_MOTION":15.22912788,"ECCENTRICITY":4.716e-5,"INCLINATION":97.3815,"RA_OF_ASC_NODE":146.767,"ARG_OF_PERICENTER":228.7595,"MEAN_ANOMALY":131.3601,"EPHEMERIS_TYPE":0,"CLASSIFICATION_TYPE":"U","NORAD_CAT_ID":60472,"ELEMENT_SET_NO":999,"REV_AT_EPOCH":8666,"BSTAR":0.00025344634,"MEAN_MOTION_DOT":5.875e-5,"MEAN_MOTION_DDOT":0}]
